STARLINK-30526          
1 58006U 23153R   25161.84259138 -.00000025  00000+0  13235-4 0  9993
2 58006  43.0037  80.6874 0001126 270.3144  89.7569 15.02532273 94278
STARLINK-30527          
1 58007U 23153S   25161.64277090 -.00004193  00000+0 -14287-3 0  9997
2 58007  42.9995 294.7548 0001849 272.8806  87.1834 15.27594659 95912
STARLINK-30522          
1 58008U 23153T   25161.12069421 -.00000099  00000+0  77631-5 0  9992
2 58008  43.0044 109.9151 0001286 267.0345  93.0350 15.02532427 93876
STARLINK-30486          
1 58009U 23153U   25161.23367169 -.00000388  00000+0 -13674-4 0  9993
2 58009  43.0027 109.0458 0000966 282.3028  77.7706 15.02534239 93799
STARLINK-30520          
1 58010U 23153V   25161.22380437  .00000047  00000+0  18539-4 0  9992
2 58010  43.0043 109.8187 0000637 333.2380  26.8429 15.02543277 93786
STARLINK-30497          
1 58011U 23153W   25161.28694368  .00012270  00000+0  92229-3 0  9998
2 58011  43.0023 109.4323 0000441 167.5511 192.5342 15.02514374 93893
STARLINK-30525          
1 58012U 23153X   25161.54286828  .00000450  00000+0  48353-4 0  9993
2 58012  43.0039 107.9116 0001130 268.8603  91.2110 15.02533203 93932
STARLINK-30514          
1 58028U 23156A   25161.68476841  .00000880  00000+0  41857-4 0  9993
2 58028  53.1590 261.6141 0001264  92.7796 267.3349 15.30189509 94673
STARLINK-30518          
1 58029U 23156B   25161.56364199  .00000745  00000+0  37299-4 0  9998
2 58029  53.1591 262.2866 0001202  85.7995 274.3144 15.30179825 94650
STARLINK-30549          
1 58030U 23156C   25161.52467830  .00001438  00000+0  60724-4 0  9991
2 58030  53.1609 262.5670 0001138 100.3200 259.7929 15.30172718 94594
STARLINK-30556          
1 58031U 23156D   25161.54251152 -.00000538  00000+0 -60520-5 0  9999
2 58031  53.1613 272.4947 0001207  99.8534 260.2603 15.30186460 94490
STARLINK-30561          
1 58032U 23156E   25161.53101422 -.00001071  00000+0 -24059-4 0  9992
2 58032  53.1609 262.6070 0001413  90.4922 269.6240 15.30182551 94645
STARLINK-30562          
1 58033U 23156F   25161.51895755  .00000095  00000+0  26034-4 0  9998
2 58033  53.1618 346.6791 0001349  92.6360 267.4784 15.04926386 93446
STARLINK-30565          
1 58034U 23156G   25161.66374540 -.00003887  00000+0 -11917-3 0  9996
2 58034  53.1604 262.0185 0001146  94.1292 265.9839 15.30205341 94665
STARLINK-30438          
1 58035U 23156H   25161.54886568  .00000903  00000+0  42631-4 0  9994
2 58035  53.1602 262.1861 0001227  83.8965 276.2176 15.30180712 94313
STARLINK-30437          
1 58036U 23156J   25161.55730255  .00000486  00000+0  28535-4 0  9990
2 58036  53.1604 262.2331 0001345  94.6178 265.4976 15.30191584 94605
STARLINK-30533          
1 58037U 23156K   25161.51144579  .00000712  00000+0  69088-4 0  9995
2 58037  53.1606 346.6204 0001377  90.1908 269.9240 15.04924224 93441
STARLINK-30560          
1 58038U 23156L   25161.58335648 -.00041561  00000+0 -13983-2 0  9992
2 58038  53.1584 259.4481 0001340  95.6362 318.5434 15.30213440 94435
STARLINK-30559          
1 58039U 23156M   25160.79486001  .00000222  00000+0  34902-4 0  9998
2 58039  53.1618 349.9807 0001454  93.0743 267.0413 15.04924338 93331
STARLINK-30555          
1 58040U 23156N   25161.52217731  .00000181  00000+0  31994-4 0  9996
2 58040  53.1610 346.7032 0001354  90.5226 269.5918 15.04925374 93447
STARLINK-30542          
1 58041U 23156P   25161.54467186  .00000593  00000+0  32143-4 0  9994
2 58041  53.1595 262.3236 0001261  91.7620 268.3526 15.30184698 94647
STARLINK-30563          
1 58042U 23156Q   25161.54303421  .00000938  00000+0  43820-4 0  9993
2 58042  53.1600 259.8582 0001372  97.5727 262.5430 15.30184574 94682
STARLINK-30564          
1 58043U 23156R   25161.66480878  .00001999  00000+0  79665-4 0  9993
2 58043  53.1604 262.0211 0001327 103.1040 257.0109 15.30177475 94666
STARLINK-30547          
1 58044U 23156S   25161.54781185  .00000114  00000+0  27349-4 0  9996
2 58044  53.1626 346.1150 0001474  90.2540 269.8618 15.04910657 93440
STARLINK-30550          
1 58045U 23156T   25161.44440640 -.00000156  00000+0  68543-5 0  9993
2 58045  53.1589 185.9064 0001164  85.6698 274.4436 15.30187303 95692
STARLINK-30548          
1 58046U 23156U   25161.24901104 -.00001510  00000+0 -86179-4 0  9999
2 58046  53.1611 347.8392 0000621 141.8402 218.2631 15.04930454 93355
STARLINK-30529          
1 58047U 23156V   25161.50500922  .00000098  00000+0  26220-4 0  9991
2 58047  53.1620 346.5869 0001120 110.4422 249.6688 15.04920023 93395
STARLINK-30554          
1 58048U 23156W   25161.50179229 -.00000138  00000+0  97350-5 0  9993
2 58048  53.1618 346.5773 0001259  92.8465 267.2668 15.04920977 93392
STARLINK-30568          
1 58051U 23158A   25161.43401772  .00000180  00000+0  28374-4 0  9997
2 58051  43.0058  69.9852 0001115 263.4576  96.6139 15.02535779 92572
STARLINK-30575          
1 58052U 23158B   25161.44067137 -.00001482  00000+0 -94639-4 0  9997
2 58052  43.0033  70.0334 0001321 258.5086 101.5608 15.02546934 92576
STARLINK-30577          
1 58053U 23158C   25161.03182126 -.00000381  00000+0 -13123-4 0  9995
2 58053  43.0039  72.1084 0001112 270.3537  89.7177 15.02530868 92510
STARLINK-30566          
1 58054U 23158D   25161.09163523  .00003756  00000+0  29293-3 0  9993
2 58054  43.0035  71.7171 0002240 248.5499 111.5104 15.02544479 92524
STARLINK-30544          
1 58055U 23158E   25161.14146920  .00000395  00000+0  44323-4 0  9990
2 58055  43.0045  71.2297 0001126 265.3839  94.6875 15.02532591 92536
STARLINK-30553          
1 58056U 23158F   25161.08498314 -.00000166  00000+0  27962-5 0  9999
2 58056  43.0034  71.6662 0000953 270.1080  89.9653 15.02534107 92529
STARLINK-30541          
1 58057U 23158G   25161.08830717  .00001081  00000+0  95051-4 0  9996
2 58057  43.0036  71.6916 0000962 267.3231  92.7501 15.02537400 92523
STARLINK-30573          
1 58058U 23158H   25161.14812830  .00000743  00000+0  70088-4 0  9997
2 58058  43.0043  71.2803 0000741 254.0273 106.0487 15.02532999 92538
STARLINK-30582          
1 58059U 23158J   25161.47052575  .00000366  00000+0  42137-4 0  9991
2 58059  43.0054  69.3991 0001244 266.0643  94.0057 15.02537209 92583
STARLINK-30558          
1 58060U 23158K   25161.44401236  .00000785  00000+0  73167-4 0  9994
2 58060  43.0042  70.0448 0001273 204.8742 155.2039 15.02542306 92573
STARLINK-30579          
1 58061U 23158L   25161.40132759 -.00001070  00000+0 -64182-4 0  9999
2 58061  43.0052  44.4281 0001240 265.1287  94.9414 15.02534315 92862
STARLINK-30588          
1 58062U 23158M   25161.46386938 -.00000189  00000+0  10530-5 0  9994
2 58062  43.0043  69.3472 0001001 271.7968  88.2759 15.02532900 92579
STARLINK-30585          
1 58063U 23158N   25161.78626216  .00004174  00000+0  32372-3 0  9999
2 58063  43.0047  67.4698 0000873 260.1838  99.8906 15.02554735 92625
STARLINK-30587          
1 58064U 23158P   25161.46720279 -.00000299  00000+0 -70759-5 0  9998
2 58064  43.0033  69.3750 0000949 269.9475  90.1259 15.02533668 92581
STARLINK-30576          
1 58065U 23158Q   25161.42735807  .00001137  00000+0  99196-4 0  9993
2 58065  43.0043  69.9387 0001143 266.7034  93.3677 15.02535003 92571
STARLINK-30571          
1 58066U 23158R   25161.77960945  .00000385  00000+0  43518-4 0  9996
2 58066  43.0034  67.4162 0000947 265.2897  94.7837 15.02550548 92639
STARLINK-30567          
1 58067U 23158S   25161.44178598  .00000015  00000+0  16234-4 0  9991
2 58067  43.0033  70.0258 0001994 214.5219 145.5494 15.02534002 92577
STARLINK-30569          
1 58068U 23158T   25161.46053650 -.00000470  00000+0 -19735-4 0  9991
2 58068  43.0049  69.3218 0001261 268.1414  91.9284 15.02547080 92583
STARLINK-30480          
1 58069U 23158U   25161.56749695  .00003261  00000+0  12801-3 0  9999
2 58069  42.9973 341.6197 0001493 213.8838 146.1919 15.27571684 93622
STARLINK-30532          
1 58070U 23158V   25161.45720934 -.00000030  00000+0  12857-4 0  9998
2 58070  43.0036  69.2965 0001147 265.0703  95.0008 15.02534765 92585
STARLINK-30513          
1 58071U 23158W   25161.43313379  .00000643  00000+0  32878-4 0  9992
2 58071  42.9992 208.7105 0001439 277.4629  82.6059 15.27579926 95147
STARLINK-30506          
1 58072U 23158X   25161.45055036  .00000678  00000+0  65283-4 0  9992
2 58072  43.0040  69.2471 0001091 267.1447  92.9270 15.02519330 92588
STARLINK-30604          
1 58075U 23160A   25161.59101972  .00000198  00000+0  29731-4 0  9999
2 58075  43.0031 119.0754 0000509 270.2482  89.8302 15.02535856 91981
STARLINK-30500          
1 58076U 23160B   25161.60089540  .00000330  00000+0  39487-4 0  9995
2 58076  43.0026 118.2827 0001097 267.6973  92.3744 15.02547169 91996
STARLINK-30613          
1 58077U 23160C   25161.58435950 -.00000185  00000+0  13969-5 0  9990
2 58077  43.0026 119.0223 0001035 272.3605  87.7118 15.02534088 91992
STARLINK-30597          
1 58078U 23160D   25161.59434560  .00000008  00000+0  15673-4 0  9994
2 58078  43.0036 119.0828 0001080 271.0700  89.0019 15.02536158 91981
STARLINK-30598          
1 58079U 23160E   25161.58103440 -.00000614  00000+0 -30361-4 0  9990
2 58079  43.0028 118.9961 0000893 270.5053  89.5687 15.02531916 91988
STARLINK-30603          
1 58080U 23160F   25161.24531675 -.00000408  00000+0 -15174-4 0  9996
2 58080  43.0027 120.7781 0000903 270.4213  89.6526 15.02535733 91938
STARLINK-30602          
1 58081U 23160G   25161.27848996 -.00000678  00000+0 -35110-4 0  9998
2 58081  43.0035 120.1536 0001401 252.2173 107.8516 15.02538797 91943
STARLINK-30610          
1 58082U 23160H   25161.24198204 -.00000094  00000+0  81169-5 0  9993
2 58082  43.0031 120.7546 0001120 276.4126  83.6589 15.02534330 91930
STARLINK-30551          
1 58083U 23160J   25161.57104272 -.00001564  00000+0 -10074-3 0  9991
2 58083  43.0013 118.9238 0001121 261.1153  98.9562 15.02535271 91991
